start=new Date('2023-02-13T00:00:00.000Z').valueOf();
sats=[{"OBJECT_TYPE":"PAYLOAD","DECAY_DATE":null,"REF_FRAME":"TEME","CENTER_NAME":"EARTH","LAUNCH_DATE":"2020-01-07","MEAN_MOTION_DOT":"0.00010470","NORAD_CAT_ID":"44947","ELEMENT_SET_NO":"999","PERIOD":"95.593","BSTAR":"0.00072088000000","REV_AT_EPOCH":"17117","MEAN_MOTION":"15.06391066","PERIAPSIS":"546.059","CLASSIFICATION_TYPE":"U","EPHEMERIS_TYPE":"0","ARG_OF_PERICENTER":"90.9690","INCLINATION":"53.0537","TIME_SYSTEM":"UTC","GP_ID":"225273963","EPOCH":"2023-02-12T17:38:46.603968","MEAN_MOTION_DDOT":"0.0000000000000","TLE_LINE1":"1 44947U 20001AK  23043.73526162  .00010470  00000-0  72088-3 0  9995","ECCENTRICITY":"0.00017070","RA_OF_ASC_NODE":"318.7864","SEMIMAJOR_AXIS":"6925.376","FILE":"3788048","OBJECT_NAME":"STARLINK-1116","COUNTRY_CODE":"US","APOAPSIS":"548.423","TLE_LINE2":"2 44947  53.0537 318.7864 0001707  90.9690 269.1495 15.06391066171178","OBJECT_ID":"2020-001AK","RCS_SIZE":"LARGE","SITE":"AFETR","MEAN_ANOMALY":"269.1495","MEAN_ELEMENT_THEORY":"SGP4"},{"ECCENTRICITY":"0.00013330","RA_OF_ASC_NODE":"318.0732","SEMIMAJOR_AXIS":"6925.405","FILE":"3788048","COUNTRY_CODE":"US","OBJECT_NAME":"STARLINK-1122","APOAPSIS":"548.193","TLE_LINE2":"2 44949  53.0526 318.0732 0001333  80.4465 279.6675 15.06381593171196","OBJECT_ID":"2020-001AM","RCS_SIZE":"LARGE","SITE":"AFETR","MEAN_ANOMALY":"279.6675","MEAN_ELEMENT_THEORY":"SGP4","OBJECT_TYPE":"PAYLOAD","REF_FRAME":"TEME","DECAY_DATE":null,"LAUNCH_DATE":"2020-01-07","CENTER_NAME":"EARTH","NORAD_CAT_ID":"44949","MEAN_MOTION_DOT":"0.00004691","ELEMENT_SET_NO":"999","PERIOD":"95.593","BSTAR":"0.00033377000000","REV_AT_EPOCH":"17119","MEAN_MOTION":"15.06381593","PERIAPSIS":"546.347","CLASSIFICATION_TYPE":"U","ARG_OF_PERICENTER":"80.4465","EPHEMERIS_TYPE":"0","INCLINATION":"53.0526","TIME_SYSTEM":"UTC","GP_ID":"225273748","EPOCH":"2023-02-12T21:27:00.733536","MEAN_MOTION_DDOT":"0.0000000000000","TLE_LINE1":"1 44949U 20001AM  23043.89375849  .00004691  00000-0  33377-3 0  9994"},{"PERIOD":"94.449","BSTAR":"0.00344970000000","REV_AT_EPOCH":"17139","ELEMENT_SET_NO":"999","CENTER_NAME":"EARTH","LAUNCH_DATE":"2020-01-07","MEAN_MOTION_DOT":"0.00086982","NORAD_CAT_ID":"44950","OBJECT_TYPE":"PAYLOAD","DECAY_DATE":null,"REF_FRAME":"TEME","TLE_LINE1":"1 44950U 20001AN  23043.79164226  .00086982  00000-0  34497-2 0  9996","EPOCH":"2023-02-12T18:59:57.891264","MEAN_MOTION_DDOT":"0.0000000000000","INCLINATION":"53.0590","GP_ID":"225273752","TIME_SYSTEM":"UTC","MEAN_MOTION":"15.24638665","PERIAPSIS":"488.423","CLASSIFICATION_TYPE":"U","ARG_OF_PERICENTER":"165.8263","EPHEMERIS_TYPE":"0","FILE":"3788048","COUNTRY_CODE":"US","OBJECT_NAME":"STARLINK-1125","APOAPSIS":"495.322","TLE_LINE2":"2 44950  53.0590 303.2581 0005021 165.8263 194.2876 15.24638665171391","SEMIMAJOR_AXIS":"6870.008","ECCENTRICITY":"0.00050210","RA_OF_ASC_NODE":"303.2581","MEAN_ELEMENT_THEORY":"SGP4","SITE":"AFETR","MEAN_ANOMALY":"194.2876","RCS_SIZE":"LARGE","OBJECT_ID":"2020-001AN"},{"PERIOD":"94.307","REV_AT_EPOCH":"17286","BSTAR":"0.00327600000000","ELEMENT_SET_NO":"999","LAUNCH_DATE":"2020-01-07","CENTER_NAME":"EARTH","NORAD_CAT_ID":"44951","MEAN_MOTION_DOT":"0.00088495","DECAY_DATE":null,"REF_FRAME":"TEME","OBJECT_TYPE":"PAYLOAD","TLE_LINE1":"1 44951U 20001AP  23043.63765540  .00088495  00000-0  32760-2 0  9998","EPOCH":"2023-02-12T15:18:13.426560","MEAN_MOTION_DDOT":"0.0000000000000","INCLINATION":"53.0158","GP_ID":"225211087","TIME_SYSTEM":"UTC","PERIAPSIS":"484.143","MEAN_MOTION":"15.26929623","EPHEMERIS_TYPE":"0","ARG_OF_PERICENTER":"208.4252","CLASSIFICATION_TYPE":"U","OBJECT_NAME":"STARLINK-1126","COUNTRY_CODE":"US","FILE":"3787628","TLE_LINE2":"2 44951  53.0158 286.1653 0001248 208.4252 151.6677 15.26929623172868","APOAPSIS":"485.856","SEMIMAJOR_AXIS":"6863.134","ECCENTRICITY":"0.00012480","RA_OF_ASC_NODE":"286.1653","MEAN_ELEMENT_THEORY":"SGP4","MEAN_ANOMALY":"151.6677","SITE":"AFETR","RCS_SIZE":"LARGE","OBJECT_ID":"2020-001AP"},{"MEAN_ANOMALY":"328.1977","SITE":"AFETR","MEAN_ELEMENT_THEORY":"SGP4","OBJECT_ID":"2020-001AQ","RCS_SIZE":"LARGE","SEMIMAJOR_AXIS":"6925.266","TLE_LINE2":"2 44952  53.0527 319.9442 0000799  31.9060 328.1977 15.06426995171131","APOAPSIS":"547.684","COUNTRY_CODE":"US","OBJECT_NAME":"STARLINK-1117","FILE":"3787692","RA_OF_ASC_NODE":"319.9442","ECCENTRICITY":"0.00007990","MEAN_MOTION_DDOT":"0.0000000000000","EPOCH":"2023-02-12T11:27:11.592864","TLE_LINE1":"1 44952U 20001AQ  23043.47721751  .00008388  00000-0  58088-3 0  9992","EPHEMERIS_TYPE":"0","ARG_OF_PERICENTER":"31.9060","CLASSIFICATION_TYPE":"U","PERIAPSIS":"546.577","MEAN_MOTION":"15.06426995","TIME_SYSTEM":"UTC","GP_ID":"225233290","INCLINATION":"53.0527","ELEMENT_SET_NO":"999","REV_AT_EPOCH":"17113","BSTAR":"0.00058088000000","PERIOD":"95.590","REF_FRAME":"TEME","DECAY_DATE":null,"OBJECT_TYPE":"PAYLOAD","NORAD_CAT_ID":"44952","MEAN_MOTION_DOT":"0.00008388","LAUNCH_DATE":"2020-01-07","CENTER_NAME":"EARTH"},{"ELEMENT_SET_NO":"999","PERIOD":"95.593","BSTAR":"0.00000838810000","REV_AT_EPOCH":"17247","OBJECT_TYPE":"PAYLOAD","REF_FRAME":"TEME","DECAY_DATE":null,"CENTER_NAME":"EARTH","LAUNCH_DATE":"2020-01-07","MEAN_MOTION_DOT":"-0.00000157","NORAD_CAT_ID":"44953","EPOCH":"2023-02-12T19:50:06.600192","MEAN_MOTION_DDOT":"0.0000000000000","TLE_LINE1":"1 44953U 20001AR  23043.82646528 -.00000157  00000-0  83881-5 0  9998","MEAN_MOTION":"15.06388157","PERIAPSIS":"546.215","CLASSIFICATION_TYPE":"U","ARG_OF_PERICENTER":"95.9646","EPHEMERIS_TYPE":"0","INCLINATION":"53.0518","TIME_SYSTEM":"UTC","GP_ID":"225273954","SEMIMAJOR_AXIS":"6925.385","FILE":"3788048","COUNTRY_CODE":"US","OBJECT_NAME":"STARLINK-1124","APOAPSIS":"548.285","TLE_LINE2":"2 44953  53.0518 318.3770 0001494  95.9646 264.1513 15.06388157172472","ECCENTRICITY":"0.00014940","RA_OF_ASC_NODE":"318.3770","MEAN_ANOMALY":"264.1513","SITE":"AFETR","MEAN_ELEMENT_THEORY":"SGP4","OBJECT_ID":"2020-001AR","RCS_SIZE":"LARGE"},{"ELEMENT_SET_NO":"999","PERIOD":"95.594","BSTAR":"0.00122550000000","REV_AT_EPOCH":"17135","OBJECT_TYPE":"PAYLOAD","DECAY_DATE":null,"REF_FRAME":"TEME","LAUNCH_DATE":"2020-01-07","CENTER_NAME":"EARTH","NORAD_CAT_ID":"44954","MEAN_MOTION_DOT":"0.00018008","EPOCH":"2023-02-12T10:36:48.618432","MEAN_MOTION_DDOT":"0.0000000000000","TLE_LINE1":"1 44954U 20001AS  23043.44222938  .00018008  00000-0  12255-2 0  9999","MEAN_MOTION":"15.06376763","PERIAPSIS":"546.198","CLASSIFICATION_TYPE":"U","EPHEMERIS_TYPE":"0","ARG_OF_PERICENTER":"96.7554","INCLINATION":"53.0524","TIME_SYSTEM":"UTC","GP_ID":"225232303","SEMIMAJOR_AXIS":"6925.420","FILE":"3787692","COUNTRY_CODE":"US","OBJECT_NAME":"STARLINK-1066","APOAPSIS":"548.371","TLE_LINE2":"2 44954  53.0524 300.1000 0001569  96.7554 263.3613 15.06376763171353","ECCENTRICITY":"0.00015690","RA_OF_ASC_NODE":"300.1000","MEAN_ANOMALY":"263.3613","SITE":"AFETR","MEAN_ELEMENT_THEORY":"SGP4","OBJECT_ID":"2020-001AS","RCS_SIZE":"LARGE"},{"EPOCH":"2023-02-11T23:38:38.553216","MEAN_MOTION_DDOT":"0.0000000000000","TLE_LINE1":"1 44955U 20001AT  23042.98516844  .00006378  00000-0  44670-3 0  9994","PERIAPSIS":"546.032","MEAN_MOTION":"15.06399482","EPHEMERIS_TYPE":"0","ARG_OF_PERICENTER":"79.0129","CLASSIFICATION_TYPE":"U","INCLINATION":"53.0541","GP_ID":"225232553","TIME_SYSTEM":"UTC","ELEMENT_SET_NO":"999","PERIOD":"95.592","REV_AT_EPOCH":"17128","BSTAR":"0.00044670000000","DECAY_DATE":null,"REF_FRAME":"TEME","OBJECT_TYPE":"PAYLOAD","LAUNCH_DATE":"2020-01-07","CENTER_NAME":"EARTH","MEAN_MOTION_DOT":"0.00006378","NORAD_CAT_ID":"44955","MEAN_ANOMALY":"281.1052","SITE":"AFETR","MEAN_ELEMENT_THEORY":"SGP4","OBJECT_ID":"2020-001AT","RCS_SIZE":"LARGE","SEMIMAJOR_AXIS":"6925.350","OBJECT_NAME":"STARLINK-1069","COUNTRY_CODE":"US","FILE":"3787692","TLE_LINE2":"2 44955  53.0541 302.1436 0001709  79.0129 281.1052 15.06399482171286","APOAPSIS":"548.399","ECCENTRICITY":"0.00017090","RA_OF_ASC_NODE":"302.1436"},{"MEAN_MOTION":"15.06402497","PERIAPSIS":"546.393","CLASSIFICATION_TYPE":"U","ARG_OF_PERICENTER":"96.0571","EPHEMERIS_TYPE":"0","INCLINATION":"53.0554","GP_ID":"225232793","TIME_SYSTEM":"UTC","EPOCH":"2023-02-12T10:40:45.047712","MEAN_MOTION_DDOT":"0.0000000000000","TLE_LINE1":"1 44956U 20001AU  23043.44496583  .00012983  00000-0  88879-3 0  9992","OBJECT_TYPE":"PAYLOAD","DECAY_DATE":null,"REF_FRAME":"TEME","LAUNCH_DATE":"2020-01-07","CENTER_NAME":"EARTH","NORAD_CAT_ID":"44956","MEAN_MOTION_DOT":"0.00012983","ELEMENT_SET_NO":"999","PERIOD":"95.592","BSTAR":"0.00088879000000","REV_AT_EPOCH":"17141","OBJECT_ID":"2020-001AU","RCS_SIZE":"LARGE","MEAN_ANOMALY":"264.0552","SITE":"AFETR","MEAN_ELEMENT_THEORY":"SGP4","ECCENTRICITY":"0.00011740","RA_OF_ASC_NODE":"300.0727","SEMIMAJOR_AXIS":"6925.341","FILE":"3787692","OBJECT_NAME":"STARLINK-1070","COUNTRY_CODE":"US","APOAPSIS":"548.019","TLE_LINE2":"2 44956  53.0554 300.0727 0001174  96.0571 264.0552 15.06402497171418"},{"OBJECT_ID":"2020-001AV","RCS_SIZE":"LARGE","MEAN_ANOMALY":"264.9446","SITE":"AFETR","MEAN_ELEMENT_THEORY":"SGP4","ECCENTRICITY":"0.00015210","RA_OF_ASC_NODE":"300.2445","SEMIMAJOR_AXIS":"6925.379","FILE":"3787692","OBJECT_NAME":"STARLINK-1074","COUNTRY_CODE":"US","APOAPSIS":"548.297","TLE_LINE2":"2 44957  53.0549 300.2445 0001521  95.1717 264.9446 15.06390025171403","MEAN_MOTION":"15.06390025","PERIAPSIS":"546.191","CLASSIFICATION_TYPE":"U","ARG_OF_PERICENTER":"95.1717","EPHEMERIS_TYPE":"0","INCLINATION":"53.0549","TIME_SYSTEM":"UTC","GP_ID":"225231556","EPOCH":"2023-02-12T09:42:22.136832","MEAN_MOTION_DDOT":"0.0000000000000","TLE_LINE1":"1 44957U 20001AV  23043.40442288  .00003133  00000-0  22921-3 0  9995","OBJECT_TYPE":"PAYLOAD","DECAY_DATE":null,"REF_FRAME":"TEME","LAUNCH_DATE":"2020-01-07","CENTER_NAME":"EARTH","NORAD_CAT_ID":"44957","MEAN_MOTION_DOT":"0.00003133","ELEMENT_SET_NO":"999","PERIOD":"95.593","BSTAR":"0.00022921000000","REV_AT_EPOCH":"17140"}];
